LEMUR-2-ROUNDTRIPPER    
1 62711U 25009DG  26203.15401109  .00007688  00000+0  55606-3 0  9990
2 62711  97.7238 285.7935 0004340  50.5142 309.6467 15.04302698 82881
LEMUR-2-MYNAMEISJEFF    
1 62712U 25009DH  26202.48735711  .00007052  00000+0  51072-3 0  9993
2 62712  97.7286 285.5292 0004341  84.9538 275.2183 15.04285045 82788
LEMUR-2-LEIA-PHILIP     
1 63246U 25052AN  26203.15319197  .00000738  00000+0  68439-4 0  9995
2 63246  97.6786  94.5098 0005066 105.2568 254.9215 14.97397549 73900
LEMUR-2-LIA-MARTIN      
1 63248U 25052AQ  26203.01113969  .00003436  00000+0  29542-3 0  9990
2 63248  97.6845  94.9008 0004778  73.2932 286.8815 14.98059304 73894
LEMUR-2-DELOITTE-1      
1 63259U 25052BB  26202.52506276  .00003086  00000+0  26750-3 0  9993
2 63259  97.6886  94.7523 0002492  54.5188 305.6266 14.97817800 73833
LEMUR-2-EMERSONROSE     
1 63261U 25052BD  26202.93330649  .00003767  00000+0  31303-3 0  9996
2 63261  97.6883  95.7830 0002298  44.5379 315.6029 14.99329307 73942
LEMUR-2-MARACHE-FRAN    
1 63262U 25052BE  26203.21821514  .00003861  00000+0  31229-3 0  9997
2 63262  97.6811  96.4371 0006054 224.6548 135.4189 15.00348969 74017
LEMUR-2-THEFALCONER     
1 63264U 25052BG  26203.15782008  .00002459  00000+0  21543-3 0  9996
2 63264  97.6811  94.9577 0000891 205.4369 154.6810 14.97587979 73925
LEMUR-2-UNTITLED-SC     
1 63351U 25061A   26202.86273625  .00003391  00000+0  19137-3 0  9992
2 63351  97.5661 177.9807 0019839 141.0529 219.2136 15.13676744 72833
LEMUR-2-ESPERANZA       
1 63352U 25061B   26202.37488952  .00002325  00000+0  13205-3 0  9996
2 63352  97.5669 177.5980 0019400 141.9875 218.2730 15.13778548 72763
LEMUR-2-KREMPEL-BRO2    
1 63353U 25061C   26202.72253541  .00002943  00000+0  16407-3 0  9993
2 63353  97.5713 178.5205 0020571 133.8513 226.4423 15.14208797 72838
LEMUR-2-THERMORAPTOR    
1 63354U 25061D   26203.16529110  .00003341  00000+0  18530-3 0  9993
2 63354  97.5720 179.0434 0020338 131.3724 228.9261 15.14294571 72905
LEMUR-2-NEUROSPICY      
1 63355U 25061E   26202.86996384  .00003691  00000+0  20385-3 0  9990
2 63355  97.5646 178.3489 0018109 135.2417 225.0280 15.14412378 72861
LEMUR-2-TILLINFINITY    
1 63356U 25061F   26202.89185912  .00003800  00000+0  20623-3 0  9998
2 63356  97.5632 178.6855 0019548 124.2631 236.0456 15.14997848 72891
LEMUR-2-KREMPEL-BRO1    
1 63357U 25061G   26202.80370882  .00003691  00000+0  20147-3 0  9991
2 63357  97.5632 178.5041 0020214 125.9156 234.3956 15.14803299 72870
LEMUR-2-LANGER2SPACE    
1 63358U 25061H   26203.16752167  .00003185  00000+0  17604-3 0  9994
2 63358  97.5638 178.6659 0018040 132.6129 227.6628 15.14497880 72913
LEMUR-2-BALTO           
1 63395U 25052BH  26202.26865739  .00003268  00000+0  26481-3 0  9990
2 63395  97.6918  95.4959 0005002 301.3682  58.7052 15.00396128 73876
LEMUR-2-KRISH           
1 64561U 25135AK  26202.64636741  .00003905  00000+0  34897-3 0  9997
2 64561  97.7759 317.2956 0001175 109.6235 250.5113 14.96480464 59075
LEMUR-2-HUBBLE-4        
1 64565U 25135AP  26202.57219577  .00000835  00000+0  84282-4 0  9990
2 64565  97.7722 316.0824 0003140 147.4376 212.7038 14.93696631 59001
LEMUR-2-SEJONG-2        
1 64586U 25135BL  26203.20015303  .00005545  00000+0  48730-3 0  9995
2 64586  97.7710 317.9915 0004377 186.4718 173.6448 14.96954966 59188
LEMUR-2-HUBBLE-5        
1 64840U 25135BT  26202.77968267  .00001001  00000+0  98715-4 0  9997
2 64840  97.7742 316.9636 0004853 209.1464 150.9485 14.94224119 59070
LEMUR-2-KARENDARRELL    
1 64841U 25135BU  26203.06498317  .00007952  00000+0  63341-3 0  9992
2 64841  97.7720 319.2325 0012962  83.9339 276.3361 15.00567151 59246
LEMUR-2-LUCILLE-ROSE    
1 65403U 25135BV  26202.77177812  .00006864  00000+0  54743-3 0  9995
2 65403  97.7692 318.9731 0015512 169.4240 190.7313 15.00544258 53828
LEMUR-2-AFFIE-WAUWIE    
1 66295U 25248C   26203.29780295  .00022581  00000+0  80745-3 0  9998
2 66295  45.3910 284.5663 0009302 288.2664  71.7213 15.28466219 39968
OTTER SDM               
1 66678U 25276N   26203.14094925  .00006216  00000+0  29072-3 0  9999
2 66678  97.4195 276.0428 0004838 222.8248 137.2611 15.20111322 35726
LEMUR-2-STAS-GORBUK     
1 66686U 25276W   26203.16421229  .00004820  00000+0  22883-3 0  9993
2 66686  97.4227 276.1161 0004147 216.7749 143.3202 15.19706170 35720
LEMUR-2-TEODOR          
1 66768U 25276DG  26203.17529855  .00005445  00000+0  24583-3 0  9992
2 66768  97.4133 276.4081 0002083  83.2258 276.9215 15.21387993 35762
LEMUR-2-LAILA           
1 66776U 25276DQ  26203.14406314  .00005726  00000+0  25666-3 0  9997
2 66776  97.4156 276.5203 0002795  84.4551 275.7004 15.21614421 35764
LEMUR-2-CELIJO-SB-PK    
1 66781U 25276DW  26203.18783176  .00006039  00000+0  48559-3 0  9995
2 66781  97.5180 272.8090 0006593  47.4458 312.7322 15.00337188 27873
