OBJECT_NAME,OBJECT_ID,EPOCH,MEAN_MOTION,ECCENTRICITY,INCLINATION,RA_OF_ASC_NODE,ARG_OF_PERICENTER,MEAN_ANOMALY,EPHEMERIS_TYPE,CLASSIFICATION_TYPE,NORAD_CAT_ID,ELEMENT_SET_NO,REV_AT_EPOCH,BSTAR,MEAN_MOTION_DOT,MEAN_MOTION_DDOT
LEMUR-2-ROUNDTRIPPER,2025-009DG,2026-07-22T03:41:46.558176,15.04302698,.00043401,97.7238,285.7935,50.5142,309.6467,0,U,62711,999,8288,.55606224E-3,.7688E-4,0
LEMUR-2-MYNAMEISJEFF,2025-009DH,2026-07-21T11:41:47.654304,15.04285045,.00043418,97.7286,285.5292,84.9538,275.2183,0,U,62712,999,8278,.51071588E-3,.7052E-4,0
LEMUR-2-LEIA-PHILIP,2025-052AN,2026-07-22T03:40:35.786208,14.97397549,.00050661,97.6786,94.5098,105.2568,254.9215,0,U,63246,999,7390,.68439264E-4,.738E-5,0
LEMUR-2-LIA-MARTIN,2025-052AQ,2026-07-22T00:16:02.469216,14.98059304,.00047785,97.6845,94.9008,73.2932,286.8815,0,U,63248,999,7389,.29542403E-3,.3436E-4,0
LEMUR-2-DELOITTE-1,2025-052BB,2026-07-21T12:36:05.422464,14.97817800,.00024921,97.6886,94.7523,54.5188,305.6266,0,U,63259,999,7383,.26750231E-3,.3086E-4,0
LEMUR-2-EMERSONROSE,2025-052BD,2026-07-21T22:23:57.680736,14.99329307,.00022987,97.6883,95.7830,44.5379,315.6029,0,U,63261,999,7394,.31302524E-3,.3767E-4,0
LEMUR-2-MARACHE-FRAN,2025-052BE,2026-07-22T05:14:13.788096,15.00348969,.00060543,97.6811,96.4371,224.6548,135.4189,0,U,63262,999,7401,.3122921E-3,.3861E-4,0
LEMUR-2-THEFALCONER,2025-052BG,2026-07-22T03:47:15.654912,14.97587979,.00008914,97.6811,94.9577,205.4369,154.6810,0,U,63264,999,7392,.21542644E-3,.2459E-4,0
LEMUR-2-UNTITLED-SC,2025-061A,2026-07-21T20:42:20.412000,15.13676744,.00198398,97.5661,177.9807,141.0529,219.2136,0,U,63351,999,7283,.19136642E-3,.3391E-4,0
LEMUR-2-ESPERANZA,2025-061B,2026-07-21T08:59:50.454528,15.13778548,.00194001,97.5669,177.5980,141.9875,218.2730,0,U,63352,999,7276,.13205124E-3,.2325E-4,0
LEMUR-2-KREMPEL-BRO2,2025-061C,2026-07-21T17:20:27.059424,15.14208797,.00205719,97.5713,178.5205,133.8513,226.4423,0,U,63353,999,7283,.16407102E-3,.2943E-4,0
LEMUR-2-THERMORAPTOR,2025-061D,2026-07-22T03:58:01.151040,15.14294571,.00203385,97.5720,179.0434,131.3724,228.9261,0,U,63354,999,7290,.18530384E-3,.3341E-4,0
LEMUR-2-NEUROSPICY,2025-061E,2026-07-21T20:52:44.875776,15.14412378,.00181091,97.5646,178.3489,135.2417,225.0280,0,U,63355,999,7286,.20384873E-3,.3691E-4,0
LEMUR-2-TILLINFINITY,2025-061F,2026-07-21T21:24:16.627968,15.14997848,.00195482,97.5632,178.6855,124.2631,236.0456,0,U,63356,999,7289,.20623235E-3,.38E-4,0
LEMUR-2-KREMPEL-BRO1,2025-061G,2026-07-21T19:17:20.442048,15.14803299,.00202149,97.5632,178.5041,125.9156,234.3956,0,U,63357,999,7287,.20147284E-3,.3691E-4,0
LEMUR-2-LANGER2SPACE,2025-061H,2026-07-22T04:01:13.872288,15.14497880,.00180409,97.5638,178.6659,132.6129,227.6628,0,U,63358,999,7291,.1760359E-3,.3185E-4,0
LEMUR-2-BALTO,2025-052BH,2026-07-21T06:26:51.998496,15.00396128,.00050028,97.6918,95.4959,301.3682,58.7052,0,U,63395,999,7387,.26481333E-3,.3268E-4,0
LEMUR-2-KRISH,2025-135AK,2026-07-21T15:30:46.144224,14.96480464,.00011754,97.7759,317.2956,109.6235,250.5113,0,U,64561,999,5907,.34897027E-3,.3905E-4,0
LEMUR-2-HUBBLE-4,2025-135AP,2026-07-21T13:43:57.714528,14.93696631,.00031402,97.7722,316.0824,147.4376,212.7038,0,U,64565,999,5900,.84281726E-4,.835E-5,0
LEMUR-2-SEJONG-2,2025-135BL,2026-07-22T04:48:13.221792,14.96954966,.00043779,97.7710,317.9915,186.4718,173.6448,0,U,64586,999,5918,.48730079E-3,.5545E-4,0
LEMUR-2-HUBBLE-5,2025-135BT,2026-07-21T18:42:44.582688,14.94224119,.00048533,97.7742,316.9636,209.1464,150.9485,0,U,64840,999,5907,.98715079E-4,.1001E-4,0
LEMUR-2-KARENDARRELL,2025-135BU,2026-07-22T01:33:34.545888,15.00567151,.00129629,97.7720,319.2325,83.9339,276.3361,0,U,64841,999,5924,.63341277E-3,.7952E-4,0
LEMUR-2-LUCILLE-ROSE,2025-135BV,2026-07-21T18:31:21.629568,15.00544258,.00155129,97.7692,318.9731,169.4240,190.7313,0,U,65403,999,5382,.54742656E-3,.6864E-4,0
LEMUR-2-AFFIE-WAUWIE,2025-248C,2026-07-22T07:08:50.174880,15.28466219,.00093025,45.3910,284.5663,288.2664,71.7213,0,U,66295,999,3996,.80744806E-3,.22581E-3,0
OTTER SDM,2025-276N,2026-07-22T03:22:58.015200,15.20111322,.00048388,97.4195,276.0428,222.8248,137.2611,0,U,66678,999,3572,.29071715E-3,.6216E-4,0
LEMUR-2-STAS-GORBUK,2025-276W,2026-07-22T03:56:27.941856,15.19706170,.0004147,97.4227,276.1161,216.7749,143.3202,0,U,66686,999,3572,.22883191E-3,.482E-4,0
LEMUR-2-TEODOR,2025-276DG,2026-07-22T04:12:25.794720,15.21387993,.00020832,97.4133,276.4081,83.2258,276.9215,0,U,66768,999,3576,.24583E-3,.5445E-4,0
LEMUR-2-LAILA,2025-276DQ,2026-07-22T03:27:27.055296,15.21614421,.00027954,97.4156,276.5203,84.4551,275.7004,0,U,66776,999,3576,.25665645E-3,.5726E-4,0
LEMUR-2-CELIJO-SB-PK,2025-276DW,2026-07-22T04:30:28.664064,15.00337188,.00065935,97.5180,272.8090,47.4458,312.7322,0,U,66781,999,2787,.48558688E-3,.6039E-4,0
